[{"CCSDS_OMM_VERS":"2.0","COMMENT":"GENERATED VIA SPACE-TRACK.ORG API","CREATION_DATE":"2021-09-20T17:37:39","ORIGINATOR":"18 SPCS","OBJECT_NAME":"GALILEO-FM2","OBJECT_ID":"2011-060B","CENTER_NAME":"EARTH","REF_FRAME":"TEME","TIME_SYSTEM":"UTC","MEAN_ELEMENT_THEORY":"SGP4","EPOCH":"2021-09-20T12:49:02.020224","MEAN_MOTION":"1.70475438","ECCENTRICITY":"0.00014140","INCLINATION":"56.8871","RA_OF_ASC_NODE":"28.6880","ARG_OF_PERICENTER":"318.6984","MEAN_ANOMALY":"156.6642","EPHEMERIS_TYPE":"0","CLASSIFICATION_TYPE":"U","NORAD_CAT_ID":"37847","ELEMENT_SET_NO":"999","REV_AT_EPOCH":"6162","BSTAR":"0.00000000000000","MEAN_MOTION_DOT":"-0.00000096","MEAN_MOTION_DDOT":"0.0000000000000","SEMIMAJOR_AXIS":"29600.154","PERIOD":"844.696","APOAPSIS":"23226.204","PERIAPSIS":"23217.833","OBJECT_TYPE":"PAYLOAD","RCS_SIZE":"LARGE","COUNTRY_CODE":"ESA","LAUNCH_DATE":"2011-10-21","SITE":"FRGUI","DECAY_DATE":null,"FILE":"3121163","GP_ID":"185089167","TLE_LINE0":"0 GALILEO-FM2","TLE_LINE1":"1 37847U 11060B   21263.53405116 -.00000096  00000-0  00000-0 0  9992","TLE_LINE2":"2 37847  56.8871  28.6880 0001414 318.6984 156.6642  1.70475438 61621"},{"CCSDS_OMM_VERS":"2.0","COMMENT":"GENERATED VIA SPACE-TRACK.ORG API","CREATION_DATE":"2021-09-21T19:20:43","ORIGINATOR":"18 SPCS","OBJECT_NAME":"GALILEO-FM2","OBJECT_ID":"2011-060B","CENTER_NAME":"EARTH","REF_FRAME":"TEME","TIME_SYSTEM":"UTC","MEAN_ELEMENT_THEORY":"SGP4","EPOCH":"2021-09-21T12:40:07.633632","MEAN_MOTION":"1.70475475","ECCENTRICITY":"0.00014280","INCLINATION":"56.8876","RA_OF_ASC_NODE":"28.6610","ARG_OF_PERICENTER":"317.2942","MEAN_ANOMALY":"47.9938","EPHEMERIS_TYPE":"0","CLASSIFICATION_TYPE":"U","NORAD_CAT_ID":"37847","ELEMENT_SET_NO":"999","REV_AT_EPOCH":"6164","BSTAR":"0.00000000000000","MEAN_MOTION_DOT":"-0.00000096","MEAN_MOTION_DDOT":"0.0000000000000","SEMIMAJOR_AXIS":"29600.149","PERIOD":"844.696","APOAPSIS":"23226.241","PERIAPSIS":"23217.787","OBJECT_TYPE":"PAYLOAD","RCS_SIZE":"LARGE","COUNTRY_CODE":"ESA","LAUNCH_DATE":"2011-10-21","SITE":"FRGUI","DECAY_DATE":null,"FILE":"3121847","GP_ID":"185150872","TLE_LINE0":"0 GALILEO-FM2","TLE_LINE1":"1 37847U 11060B   21264.52786613 -.00000096  00000-0  00000-0 0  9996","TLE_LINE2":"2 37847  56.8876  28.6610 0001428 317.2942  47.9938  1.70475475 61644"},{"CCSDS_OMM_VERS":"2.0","COMMENT":"GENERATED VIA SPACE-TRACK.ORG API","CREATION_DATE":"2021-09-22T18:16:21","ORIGINATOR":"18 SPCS","OBJECT_NAME":"GALILEO-FM2","OBJECT_ID":"2011-060B","CENTER_NAME":"EARTH","REF_FRAME":"TEME","TIME_SYSTEM":"UTC","MEAN_ELEMENT_THEORY":"SGP4","EPOCH":"2021-09-22T09:33:54.096192","MEAN_MOTION":"1.70475501","ECCENTRICITY":"0.00014420","INCLINATION":"56.8879","RA_OF_ASC_NODE":"28.6373","ARG_OF_PERICENTER":"316.3097","MEAN_ANOMALY":"223.3312","EPHEMERIS_TYPE":"0","CLASSIFICATION_TYPE":"U","NORAD_CAT_ID":"37847","ELEMENT_SET_NO":"999","REV_AT_EPOCH":"6165","BSTAR":"0.00000000000000","MEAN_MOTION_DOT":"-0.00000094","MEAN_MOTION_DDOT":"0.0000000000000","SEMIMAJOR_AXIS":"29600.146","PERIOD":"844.696","APOAPSIS":"23226.280","PERIAPSIS":"23217.743","OBJECT_TYPE":"PAYLOAD","RCS_SIZE":"LARGE","COUNTRY_CODE":"ESA","LAUNCH_DATE":"2011-10-21","SITE":"FRGUI","DECAY_DATE":null,"FILE":"3123417","GP_ID":"185230962","TLE_LINE0":"0 GALILEO-FM2","TLE_LINE1":"1 37847U 11060B   21265.39854278 -.00000094  00000-0  00000-0 0  9993","TLE_LINE2":"2 37847  56.8879  28.6373 0001442 316.3097 223.3312  1.70475501 61657"},{"CCSDS_OMM_VERS":"2.0","COMMENT":"GENERATED VIA SPACE-TRACK.ORG API","CREATION_DATE":"2021-09-22T15:06:12","ORIGINATOR":"18 SPCS","OBJECT_NAME":"GALILEO-FM2","OBJECT_ID":"2011-060B","CENTER_NAME":"EARTH","REF_FRAME":"TEME","TIME_SYSTEM":"UTC","MEAN_ELEMENT_THEORY":"SGP4","EPOCH":"2021-09-22T09:33:54.096192","MEAN_MOTION":"1.70475501","ECCENTRICITY":"0.00014420","INCLINATION":"56.8879","RA_OF_ASC_NODE":"28.6373","ARG_OF_PERICENTER":"316.3097","MEAN_ANOMALY":"223.3312","EPHEMERIS_TYPE":"0","CLASSIFICATION_TYPE":"U","NORAD_CAT_ID":"37847","ELEMENT_SET_NO":"999","REV_AT_EPOCH":"6177","BSTAR":"0.00000000000000","MEAN_MOTION_DOT":"-0.00000094","MEAN_MOTION_DDOT":"0.0000000000000","SEMIMAJOR_AXIS":"29600.146","PERIOD":"844.696","APOAPSIS":"23226.280","PERIAPSIS":"23217.743","OBJECT_TYPE":"PAYLOAD","RCS_SIZE":"LARGE","COUNTRY_CODE":"ESA","LAUNCH_DATE":"2011-10-21","SITE":"FRGUI","DECAY_DATE":null,"FILE":"3123053","GP_ID":"185209128","TLE_LINE0":"0 GALILEO-FM2","TLE_LINE1":"1 37847U 11060B   21265.39854278 -.00000094  00000-0  00000+0 0  9992","TLE_LINE2":"2 37847  56.8879  28.6373 0001442 316.3097 223.3312  1.70475501 61770"},{"CCSDS_OMM_VERS":"2.0","COMMENT":"GENERATED VIA SPACE-TRACK.ORG API","CREATION_DATE":"2021-09-23T18:41:04","ORIGINATOR":"18 SPCS","OBJECT_NAME":"GALILEO-FM2","OBJECT_ID":"2011-060B","CENTER_NAME":"EARTH","REF_FRAME":"TEME","TIME_SYSTEM":"UTC","MEAN_ELEMENT_THEORY":"SGP4","EPOCH":"2021-09-22T16:25:42.771648","MEAN_MOTION":"1.70475512","ECCENTRICITY":"0.00014460","INCLINATION":"56.8881","RA_OF_ASC_NODE":"28.6295","ARG_OF_PERICENTER":"315.7201","MEAN_ANOMALY":"39.4329","EPHEMERIS_TYPE":"0","CLASSIFICATION_TYPE":"U","NORAD_CAT_ID":"37847","ELEMENT_SET_NO":"999","REV_AT_EPOCH":"6165","BSTAR":"0.00000000000000","MEAN_MOTION_DOT":"-0.00000094","MEAN_MOTION_DDOT":"0.0000000000000","SEMIMAJOR_AXIS":"29600.145","PERIOD":"844.696","APOAPSIS":"23226.290","PERIAPSIS":"23217.730","OBJECT_TYPE":"PAYLOAD","RCS_SIZE":"LARGE","COUNTRY_CODE":"ESA","LAUNCH_DATE":"2011-10-21","SITE":"FRGUI","DECAY_DATE":null,"FILE":"3124856","GP_ID":"185308595","TLE_LINE0":"0 GALILEO-FM2","TLE_LINE1":"1 37847U 11060B   21265.68452282 -.00000094  00000-0  00000-0 0  9994","TLE_LINE2":"2 37847  56.8881  28.6295 0001446 315.7201  39.4329  1.70475512 61653"},{"CCSDS_OMM_VERS":"2.0","COMMENT":"GENERATED VIA SPACE-TRACK.ORG API","CREATION_DATE":"2021-09-24T18:52:26","ORIGINATOR":"18 SPCS","OBJECT_NAME":"GALILEO-FM2","OBJECT_ID":"2011-060B","CENTER_NAME":"EARTH","REF_FRAME":"TEME","TIME_SYSTEM":"UTC","MEAN_ELEMENT_THEORY":"SGP4","EPOCH":"2021-09-24T10:41:41.890272","MEAN_MOTION":"1.70475554","ECCENTRICITY":"0.00014800","INCLINATION":"56.8889","RA_OF_ASC_NODE":"28.5816","ARG_OF_PERICENTER":"313.5151","MEAN_ANOMALY":"42.4634","EPHEMERIS_TYPE":"0","CLASSIFICATION_TYPE":"U","NORAD_CAT_ID":"37847","ELEMENT_SET_NO":"999","REV_AT_EPOCH":"6168","BSTAR":"0.00000000000000","MEAN_MOTION_DOT":"-0.00000089","MEAN_MOTION_DDOT":"0.0000000000000","SEMIMAJOR_AXIS":"29600.140","PERIOD":"844.696","APOAPSIS":"23226.386","PERIAPSIS":"23217.624","OBJECT_TYPE":"PAYLOAD","RCS_SIZE":"LARGE","COUNTRY_CODE":"ESA","LAUNCH_DATE":"2011-10-21","SITE":"FRGUI","DECAY_DATE":null,"FILE":"3126002","GP_ID":"185380194","TLE_LINE0":"0 GALILEO-FM2","TLE_LINE1":"1 37847U 11060B   21267.44562373 -.00000089  00000-0  00000-0 0  9997","TLE_LINE2":"2 37847  56.8889  28.5816 0001480 313.5151  42.4634  1.70475554 61689"},{"CCSDS_OMM_VERS":"2.0","COMMENT":"GENERATED VIA SPACE-TRACK.ORG API","CREATION_DATE":"2021-09-24T22:46:19","ORIGINATOR":"18 SPCS","OBJECT_NAME":"GALILEO-FM2","OBJECT_ID":"2011-060B","CENTER_NAME":"EARTH","REF_FRAME":"TEME","TIME_SYSTEM":"UTC","MEAN_ELEMENT_THEORY":"SGP4","EPOCH":"2021-09-24T10:41:41.890272","MEAN_MOTION":"1.70475554","ECCENTRICITY":"0.00014800","INCLINATION":"56.8889","RA_OF_ASC_NODE":"28.5816","ARG_OF_PERICENTER":"313.5151","MEAN_ANOMALY":"42.4634","EPHEMERIS_TYPE":"0","CLASSIFICATION_TYPE":"U","NORAD_CAT_ID":"37847","ELEMENT_SET_NO":"999","REV_AT_EPOCH":"6180","BSTAR":"0.00000000000000","MEAN_MOTION_DOT":"-0.00000089","MEAN_MOTION_DDOT":"0.0000000000000","SEMIMAJOR_AXIS":"29600.140","PERIOD":"844.696","APOAPSIS":"23226.386","PERIAPSIS":"23217.624","OBJECT_TYPE":"PAYLOAD","RCS_SIZE":"LARGE","COUNTRY_CODE":"ESA","LAUNCH_DATE":"2011-10-21","SITE":"FRGUI","DECAY_DATE":null,"FILE":"3126551","GP_ID":"185401809","TLE_LINE0":"0 GALILEO-FM2","TLE_LINE1":"1 37847U 11060B   21267.44562373 -.00000089  00000-0  00000+0 0  9996","TLE_LINE2":"2 37847  56.8889  28.5816 0001480 313.5151  42.4634  1.70475554 61803"},{"CCSDS_OMM_VERS":"2.0","COMMENT":"GENERATED VIA SPACE-TRACK.ORG API","CREATION_DATE":"2021-09-25T17:39:08","ORIGINATOR":"18 SPCS","OBJECT_NAME":"GALILEO-FM2","OBJECT_ID":"2011-060B","CENTER_NAME":"EARTH","REF_FRAME":"TEME","TIME_SYSTEM":"UTC","MEAN_ELEMENT_THEORY":"SGP4","EPOCH":"2021-09-25T01:02:52.387296","MEAN_MOTION":"1.70475561","ECCENTRICITY":"0.00014940","INCLINATION":"56.8891","RA_OF_ASC_NODE":"28.5653","ARG_OF_PERICENTER":"312.7743","MEAN_ANOMALY":"50.2330","EPHEMERIS_TYPE":"0","CLASSIFICATION_TYPE":"U","NORAD_CAT_ID":"37847","ELEMENT_SET_NO":"999","REV_AT_EPOCH":"6170","BSTAR":"0.00000000000000","MEAN_MOTION_DOT":"-0.00000087","MEAN_MOTION_DDOT":"0.0000000000000","SEMIMAJOR_AXIS":"29600.139","PERIOD":"844.696","APOAPSIS":"23226.427","PERIAPSIS":"23217.582","OBJECT_TYPE":"PAYLOAD","RCS_SIZE":"LARGE","COUNTRY_CODE":"ESA","LAUNCH_DATE":"2011-10-21","SITE":"FRGUI","DECAY_DATE":null,"FILE":"3127665","GP_ID":"185461768","TLE_LINE0":"0 GALILEO-FM2","TLE_LINE1":"1 37847U 11060B   21268.04366189 -.00000087  00000-0  00000-0 0  9999","TLE_LINE2":"2 37847  56.8891  28.5653 0001494 312.7743  50.2330  1.70475561 61705"}]